CCSDS_OMM_VERS = 2.0
CREATION_DATE  = 
ORIGINATOR     = 

OBJECT_NAME    = STARLINK-36551
OBJECT_ID      = 2026-012A
CENTER_NAME    = EARTH
REF_FRAME      = TEME
TIME_SYSTEM    = UTC
MEAN_ELEMENT_THEORY = SGP/SGP4

EPOCH          = 2026-02-15T06:00:02.000160
MEAN_MOTION    = 15.33658975
ECCENTRICITY   = .00013402
INCLINATION    = 42.9998
RA_OF_ASC_NODE = 81.5487
ARG_OF_PERICENTER = 273.3501
MEAN_ANOMALY   = 145.0425

EPHEMERIS_TYPE = 0
CLASSIFICATION_TYPE = U
NORAD_CAT_ID   = 67493
ELEMENT_SET_NO = 999
REV_AT_EPOCH   = 546
BSTAR          = -.61838816E-1
MEAN_MOTION_DOT = -.1844477E-1
MEAN_MOTION_DDOT = 0

CCSDS_OMM_VERS = 2.0
CREATION_DATE  = 
ORIGINATOR     = 

OBJECT_NAME    = STARLINK-36396
OBJECT_ID      = 2026-012B
CENTER_NAME    = EARTH
REF_FRAME      = TEME
TIME_SYSTEM    = UTC
MEAN_ELEMENT_THEORY = SGP/SGP4

EPOCH          = 2026-02-15T03:32:41.613504
MEAN_MOTION    = 15.50618248
ECCENTRICITY   = .00008961
INCLINATION    = 43.0013
RA_OF_ASC_NODE = 82.6555
ARG_OF_PERICENTER = 214.0690
MEAN_ANOMALY   = 146.0113

EPHEMERIS_TYPE = 0
CLASSIFICATION_TYPE = U
NORAD_CAT_ID   = 67494
ELEMENT_SET_NO = 999
REV_AT_EPOCH   = 430
BSTAR          = .14322782E-2
MEAN_MOTION_DOT = .84715E-3
MEAN_MOTION_DDOT = 0

CCSDS_OMM_VERS = 2.0
CREATION_DATE  = 
ORIGINATOR     = 

OBJECT_NAME    = STARLINK-36550
OBJECT_ID      = 2026-012C
CENTER_NAME    = EARTH
REF_FRAME      = TEME
TIME_SYSTEM    = UTC
MEAN_ELEMENT_THEORY = SGP/SGP4

EPOCH          = 2026-02-14T23:41:31.159680
MEAN_MOTION    = 15.43385093
ECCENTRICITY   = .0002862
INCLINATION    = 42.9992
RA_OF_ASC_NODE = 83.1584
ARG_OF_PERICENTER = 241.2792
MEAN_ANOMALY   = 118.7778

EPHEMERIS_TYPE = 0
CLASSIFICATION_TYPE = U
NORAD_CAT_ID   = 67495
ELEMENT_SET_NO = 999
REV_AT_EPOCH   = 428
BSTAR          = -.41048E-3
MEAN_MOTION_DOT = -.19031E-3
MEAN_MOTION_DDOT = 0

CCSDS_OMM_VERS = 2.0
CREATION_DATE  = 
ORIGINATOR     = 

OBJECT_NAME    = STARLINK-36534
OBJECT_ID      = 2026-012D
CENTER_NAME    = EARTH
REF_FRAME      = TEME
TIME_SYSTEM    = UTC
MEAN_ELEMENT_THEORY = SGP/SGP4

EPOCH          = 2026-02-15T06:00:02.000160
MEAN_MOTION    = 15.38032189
ECCENTRICITY   = .0001376
INCLINATION    = 42.9996
RA_OF_ASC_NODE = 81.4340
ARG_OF_PERICENTER = 282.2315
MEAN_ANOMALY   = 182.9325

EPHEMERIS_TYPE = 0
CLASSIFICATION_TYPE = U
NORAD_CAT_ID   = 67496
ELEMENT_SET_NO = 999
REV_AT_EPOCH   = 540
BSTAR          = -.54946496E-1
MEAN_MOTION_DOT = -.1884035E-1
MEAN_MOTION_DDOT = 0

CCSDS_OMM_VERS = 2.0
CREATION_DATE  = 
ORIGINATOR     = 

OBJECT_NAME    = STARLINK-36555
OBJECT_ID      = 2026-012E
CENTER_NAME    = EARTH
REF_FRAME      = TEME
TIME_SYSTEM    = UTC
MEAN_ELEMENT_THEORY = SGP/SGP4

EPOCH          = 2026-02-15T06:00:02.000160
MEAN_MOTION    = 15.37674213
ECCENTRICITY   = .00014896
INCLINATION    = 43.0002
RA_OF_ASC_NODE = 81.4611
ARG_OF_PERICENTER = 280.3573
MEAN_ANOMALY   = 173.8695

EPHEMERIS_TYPE = 0
CLASSIFICATION_TYPE = U
NORAD_CAT_ID   = 67497
ELEMENT_SET_NO = 999
REV_AT_EPOCH   = 546
BSTAR          = -.56029843E-1
MEAN_MOTION_DOT = -.1897247E-1
MEAN_MOTION_DDOT = 0

CCSDS_OMM_VERS = 2.0
CREATION_DATE  = 
ORIGINATOR     = 

OBJECT_NAME    = STARLINK-36081
OBJECT_ID      = 2026-012F
CENTER_NAME    = EARTH
REF_FRAME      = TEME
TIME_SYSTEM    = UTC
MEAN_ELEMENT_THEORY = SGP/SGP4

EPOCH          = 2026-02-15T06:00:02.000160
MEAN_MOTION    = 15.44580485
ECCENTRICITY   = .00013517
INCLINATION    = 42.9996
RA_OF_ASC_NODE = 81.5895
ARG_OF_PERICENTER = 275.1724
MEAN_ANOMALY   = 127.5169

EPHEMERIS_TYPE = 0
CLASSIFICATION_TYPE = U
NORAD_CAT_ID   = 67498
ELEMENT_SET_NO = 999
REV_AT_EPOCH   = 540
BSTAR          = -.44775808E-1
MEAN_MOTION_DOT = -.1910523E-1
MEAN_MOTION_DDOT = 0

CCSDS_OMM_VERS = 2.0
CREATION_DATE  = 
ORIGINATOR     = 

OBJECT_NAME    = STARLINK-36558
OBJECT_ID      = 2026-012G
CENTER_NAME    = EARTH
REF_FRAME      = TEME
TIME_SYSTEM    = UTC
MEAN_ELEMENT_THEORY = SGP/SGP4

EPOCH          = 2026-02-15T06:00:02.000160
MEAN_MOTION    = 15.45438090
ECCENTRICITY   = .00013667
INCLINATION    = 43.0001
RA_OF_ASC_NODE = 81.5733
ARG_OF_PERICENTER = 275.2654
MEAN_ANOMALY   = 134.0256

EPHEMERIS_TYPE = 0
CLASSIFICATION_TYPE = U
NORAD_CAT_ID   = 67499
ELEMENT_SET_NO = 999
REV_AT_EPOCH   = 546
BSTAR          = -.43409035E-1
MEAN_MOTION_DOT = -.1908117E-1
MEAN_MOTION_DDOT = 0

CCSDS_OMM_VERS = 2.0
CREATION_DATE  = 
ORIGINATOR     = 

OBJECT_NAME    = STARLINK-36557
OBJECT_ID      = 2026-012H
CENTER_NAME    = EARTH
REF_FRAME      = TEME
TIME_SYSTEM    = UTC
MEAN_ELEMENT_THEORY = SGP/SGP4

EPOCH          = 2026-02-15T06:00:02.000160
MEAN_MOTION    = 15.36239598
ECCENTRICITY   = .00010806
INCLINATION    = 43.0000
RA_OF_ASC_NODE = 81.2358
ARG_OF_PERICENTER = 269.9046
MEAN_ANOMALY   = 274.9450

EPHEMERIS_TYPE = 0
CLASSIFICATION_TYPE = U
NORAD_CAT_ID   = 67500
ELEMENT_SET_NO = 999
REV_AT_EPOCH   = 546
BSTAR          = -.70197489E-1
MEAN_MOTION_DOT = -.2264117E-1
MEAN_MOTION_DDOT = 0

CCSDS_OMM_VERS = 2.0
CREATION_DATE  = 
ORIGINATOR     = 

OBJECT_NAME    = STARLINK-36433
OBJECT_ID      = 2026-012J
CENTER_NAME    = EARTH
REF_FRAME      = TEME
TIME_SYSTEM    = UTC
MEAN_ELEMENT_THEORY = SGP/SGP4

EPOCH          = 2026-02-15T06:00:02.000160
MEAN_MOTION    = 15.36437335
ECCENTRICITY   = .00010155
INCLINATION    = 42.9995
RA_OF_ASC_NODE = 81.1905
ARG_OF_PERICENTER = 293.7994
MEAN_ANOMALY   = 269.4820

EPHEMERIS_TYPE = 0
CLASSIFICATION_TYPE = U
NORAD_CAT_ID   = 67501
ELEMENT_SET_NO = 999
REV_AT_EPOCH   = 546
BSTAR          = -.57537798E-1
MEAN_MOTION_DOT = -.1873585E-1
MEAN_MOTION_DDOT = 0

CCSDS_OMM_VERS = 2.0
CREATION_DATE  = 
ORIGINATOR     = 

OBJECT_NAME    = STARLINK-36554
OBJECT_ID      = 2026-012K
CENTER_NAME    = EARTH
REF_FRAME      = TEME
TIME_SYSTEM    = UTC
MEAN_ELEMENT_THEORY = SGP/SGP4

EPOCH          = 2026-02-15T06:00:02.000160
MEAN_MOTION    = 15.44510256
ECCENTRICITY   = .00009937
INCLINATION    = 43.0004
RA_OF_ASC_NODE = 81.3259
ARG_OF_PERICENTER = 289.2008
MEAN_ANOMALY   = 219.7988

EPHEMERIS_TYPE = 0
CLASSIFICATION_TYPE = U
NORAD_CAT_ID   = 67502
ELEMENT_SET_NO = 999
REV_AT_EPOCH   = 540
BSTAR          = -.44978502E-1
MEAN_MOTION_DOT = -.1913951E-1
MEAN_MOTION_DDOT = 0

CCSDS_OMM_VERS = 2.0
CREATION_DATE  = 
ORIGINATOR     = 

OBJECT_NAME    = STARLINK-36552
OBJECT_ID      = 2026-012L
CENTER_NAME    = EARTH
REF_FRAME      = TEME
TIME_SYSTEM    = UTC
MEAN_ELEMENT_THEORY = SGP/SGP4

EPOCH          = 2026-02-15T06:00:02.000160
MEAN_MOTION    = 15.37449757
ECCENTRICITY   = .00009762
INCLINATION    = 42.9999
RA_OF_ASC_NODE = 81.0706
ARG_OF_PERICENTER = 287.3818
MEAN_ANOMALY   = 324.2716

EPHEMERIS_TYPE = 0
CLASSIFICATION_TYPE = U
NORAD_CAT_ID   = 67503
ELEMENT_SET_NO = 999
REV_AT_EPOCH   = 546
BSTAR          = -.55049347E-1
MEAN_MOTION_DOT = -.1854903E-1
MEAN_MOTION_DDOT = 0

CCSDS_OMM_VERS = 2.0
CREATION_DATE  = 
ORIGINATOR     = 

OBJECT_NAME    = STARLINK-36512
OBJECT_ID      = 2026-012M
CENTER_NAME    = EARTH
REF_FRAME      = TEME
TIME_SYSTEM    = UTC
MEAN_ELEMENT_THEORY = SGP/SGP4

EPOCH          = 2026-02-15T06:00:02.000160
MEAN_MOTION    = 15.41870494
ECCENTRICITY   = .00007179
INCLINATION    = 43.0009
RA_OF_ASC_NODE = 81.0900
ARG_OF_PERICENTER = 292.2153
MEAN_ANOMALY   = 311.8447

EPHEMERIS_TYPE = 0
CLASSIFICATION_TYPE = U
NORAD_CAT_ID   = 67504
ELEMENT_SET_NO = 999
REV_AT_EPOCH   = 546
BSTAR          = -.4944592E-1
MEAN_MOTION_DOT = -.1921993E-1
MEAN_MOTION_DDOT = 0

