STARLINK-36551          
1 67493U 26012A   26046.25002315 -.01844477  00000+0 -61839-1 0  9990
2 67493  42.9998  81.5487 0001340 273.3501 145.0425 15.33658975  5462
STARLINK-36396          
1 67494U 26012B   26046.14770386  .00084715  00000+0  14323-2 0  9994
2 67494  43.0013  82.6555 0000896 214.0690 146.0113 15.50618248  4302
STARLINK-36550          
1 67495U 26012C   26045.98716620 -.00019031  00000+0 -41048-3 0  9993
2 67495  42.9992  83.1584 0002862 241.2792 118.7778 15.43385093  4286
STARLINK-36534          
1 67496U 26012D   26046.25002315 -.01884035  00000+0 -54946-1 0  9998
2 67496  42.9996  81.4340 0001376 282.2315 182.9325 15.38032189  5402
STARLINK-36555          
1 67497U 26012E   26046.25002315 -.01897247  00000+0 -56030-1 0  9994
2 67497  43.0002  81.4611 0001489 280.3573 173.8695 15.37674213  5468
STARLINK-36081          
1 67498U 26012F   26046.25002315 -.01910523  00000+0 -44776-1 0  9992
2 67498  42.9996  81.5895 0001351 275.1724 127.5169 15.44580485  5403
STARLINK-36558          
1 67499U 26012G   26046.25002315 -.01908117  00000+0 -43409-1 0  9991
2 67499  43.0001  81.5733 0001366 275.2654 134.0256 15.45438090  5464
STARLINK-36557          
1 67500U 26012H   26046.25002315 -.02264117  00000+0 -70197-1 0  9994
2 67500  43.0000  81.2358 0001080 269.9046 274.9450 15.36239598  5466
STARLINK-36433          
1 67501U 26012J   26046.25002315 -.01873585  00000+0 -57538-1 0  9993
2 67501  42.9995  81.1905 0001015 293.7994 269.4820 15.36437335  5469
STARLINK-36554          
1 67502U 26012K   26046.25002315 -.01913951  00000+0 -44979-1 0  9991
2 67502  43.0004  81.3259 0000993 289.2008 219.7988 15.44510256  5407
STARLINK-36552          
1 67503U 26012L   26046.25002315 -.01854903  00000+0 -55049-1 0  9993
2 67503  42.9999  81.0706 0000976 287.3818 324.2716 15.37449757  5468
STARLINK-36512          
1 67504U 26012M   26046.25002315 -.01921993  00000+0 -49446-1 0  9992
2 67504  43.0009  81.0900 0000717 292.2153 311.8447 15.41870494  5463
